QB50P1                  
1 40025U 14033R   26087.84226631  .00011309  00000+0  57652-3 0  9998
2 40025  98.1001  93.4257 0010265 133.3453 226.8635 15.16904902640849
